FENGYUN 1C DEB          
1 37898U 99025EMX 17340.29529383  .00000426  00000-0  30887-3 0  9997
2 37898  98.3325 358.6273 0123468 277.6265  81.0892 13.97763629482937
